[{"OBJECT_NAME":"NEXSAT-1","OBJECT_ID":"2024-024E","EPOCH":"2026-03-09T22:47:24.778176","MEAN_MOTION":15.32166372,"ECCENTRICITY":0.00099795,"INCLINATION":97.3124,"RA_OF_ASC_NODE":144.1918,"ARG_OF_PERICENTER":108.5709,"MEAN_ANOMALY":251.6617,"EPHEMERIS_TYPE":0,"CLASSIFICATION_TYPE":"U","NORAD_CAT_ID":58921,"ELEMENT_SET_NO":999,"REV_AT_EPOCH":11669,"BSTAR":0.00031433612,"MEAN_MOTION_DOT":9.702e-5,"MEAN_MOTION_DDOT":0},{"OBJECT_NAME":"STARLINK-32190","OBJECT_ID":"2024-133T","EPOCH":"2026-03-09T21:31:30.584928","MEAN_MOTION":15.30199688,"ECCENTRICITY":7.685e-5,"INCLINATION":53.1597,"RA_OF_ASC_NODE":295.9809,"ARG_OF_PERICENTER":117.9999,"MEAN_ANOMALY":242.108,"EPHEMERIS_TYPE":0,"CLASSIFICATION_TYPE":"U","NORAD_CAT_ID":60318,"ELEMENT_SET_NO":999,"REV_AT_EPOCH":9167,"BSTAR":-5.5474253e-5,"MEAN_MOTION_DOT":-2.001e-5,"MEAN_MOTION_DDOT":0}]
